#dP2022  8 29  0  0  0.00000000      96 __u+U ITR14 FIT  IAC
## 2225  86400.00000000   900.00000000 59820 0.0000000000000
+  127   C01C02C03C04C05C06C07C08C09C10C11C12C13C14C16C19C20
+        C21C22C23C24C25C26C27C28C29C30C32C33C34C35C36C37C38
+        C39C40C41C42C43C44C45C46C60E01E02E03E04E05E07E08E09
+        E10E11E12E13E14E15E18E19E21E24E25E26E27E30E31E33E34
+        E36G01G02G03G04G05G06G07G08G09G10G11G12G13G14G15G16
+        G17G18G19G20G21G22G23G24G25G26G27G28G29G30G31G32J02
+        J03J07R01R02R03R04R05R06R07R08R09R10R11R12R13R14R15
+        R17R18R19R20R21R23R24R25  0  0  0  0  0  0  0  0  0
++        17 17 17 17 16  9  9  9  9  9  8  8  9  9  9  7  7
++         7  7  7  7  7  7  7  7  7  7  7  7  7  7  7  7  8
++         8  8  7  7  7  7  7  7 17  4  4  4  4  4  4  4  4
++         5  4  5  4  5  4  4  4  4  4  5  4  3  4  4  5  4
++         5  4  4  3  4  4  3  4  4  4  4  3  3  4  4  4  4
++         4  4  4  4  4  3  4  4  3  4  4  5  3  4  3  3  8
++         8 18  7  6  6  6  6 15  6  6  6 15  0  6  7  6  6
++         6  6  7  7  6 15  6 12  0  0  0  0  0  0  0  0  0
%c M  cc GPS ccc cccc cccc cccc cccc ccccc ccccc ccccc ccccc
%c cc cc ccc ccc cccc cccc cccc cccc ccccc ccccc ccccc ccccc
%f  0.0000000  0.000000000  0.00000000000  0.000000000000000
%f  0.0000000  0.000000000  0.00000000000  0.000000000000000
%i    0    0    0    0      0      0      0      0         0
%i    0    0    0    0      0      0      0      0         0
/* INFORMATION & ANALYSIS CENTER (IAC)            RAPID DATA
/* S/V CLOCKS ARE ALIGNED TO GNSS TIME                      
/* G:C1WC2W R:C1PC2P E:C1XC5X C:C2IC6I J:C1CC2S             
/* PCV:IGS14_2218 OL/AL:FES2004  NONE     YN ORB:CoN CLK:CoN
*  2022 08 29 21 30  0.00000000
PC01 -34328.973400  24497.439724     67.430663    593.396191
PC02   4355.347554  41828.166616   -689.941899    499.054303
PC03 -14694.895377  39487.418838   -337.916582   -397.285100
PC04 -39626.991608  14401.815910    502.442305    279.625426
PC05  21917.544984  35966.087863  -1203.203795   -109.408124
PC06  -1713.245468  31929.225038 -27352.497558    721.224107
PC07 -15299.030438  27299.612801  28231.675875    -70.053737
PC08 -14587.945363  39505.326418  -3548.011892    456.422357
PC09   5322.622104  35875.144455 -20705.688833   -879.720500
PC10  -6812.698779  27913.297761  31036.087511    102.999915
PC11 -20493.243806  -6508.841898  17828.257142   -439.888733
PC12 -18997.358653 -20302.552795   2247.197467   -535.489099
PC13  -9437.713670  40089.901828  -9589.570708     66.317522
PC14 -27443.719606   2507.968930   4209.989133    619.920726
PC16  -4202.137734  29537.317474 -29491.422981    140.724621
PC19  25955.982927  -8838.913772   5263.339129   -538.738264
PC20  25306.173891   2951.984064 -11415.155921    340.855555
PC21  -9270.939261 -13832.638475  22397.577357   -287.789661
PC22  11688.184183 -16025.924503  19632.391747   -392.115283
PC23 -10263.490833  25894.425029  -1718.217779   -968.201788
PC24 -14340.184547  -8142.058348 -22511.625629   -970.938750
PC25 -17183.962414  14191.485817 -16811.163669   -685.763555
PC26  -4241.212463 -22919.988063 -15325.554368     -0.127945
PC27  14021.384178  23274.393412   6323.248796     12.907381
PC28  -1272.312805  19653.017963  19776.115869      6.975415
PC29  16618.746066  -4471.897116 -21976.430088      6.521612
PC30  22130.480294  13463.034900 -10368.682051    502.543414
PC32   9319.860684  13787.963426 -22394.078726   -828.967736
PC33 -25926.167045   8925.950448  -5144.374181   -532.581420
PC34 -22187.210905 -12625.795878  11277.931411   -325.174334
PC35   1856.633131 -19014.326771 -20360.285092    435.031879
PC36  17597.261516 -13187.355083  17208.355663   -967.691640
PC37   2789.054449  23752.305003  14419.912536    -33.254611
PC38 -18218.390995  37865.675754   4478.619239     20.624961
PC39  -7825.839787  25857.563849 -32300.256838     -0.328484
PC40 -21827.643805  20858.463690  29330.773030     -3.187137
PC41 -12169.890457  16006.106293 -19305.142366    -30.684484
PC42 -24716.641332  -3755.361337  12414.320404   -202.046091
PC43 -17168.429849   3757.780274  21669.617092     11.385984
PC44 -14667.213770 -22845.706080  -6527.162644     33.436363
PC45  10059.462903 -25978.999545   1416.843107    847.675935
PC46  14932.047831   6321.705045  22721.275991   -513.216151
PC60   7352.880863  41522.467653    610.162142     -0.974046
PE01  22839.252417  -2842.869917  18621.144443   -544.117089
PE02 -22918.668313   3032.842282 -18486.570531    321.459616
PE03 -28500.256098  -5702.479727  -5570.693023   -594.538580
PE04  19719.290890  -8391.043007  20423.572905  -1104.195284
PE05 -20709.511286 -16760.907601  12894.806211   -148.899136
PE07   1019.286076  17894.045314 -23556.436359   -700.922042
PE08 -19547.884620   8416.252960 -20568.992165   -589.807050
PE09   -995.068628 -17733.904000  23676.400701   -640.251575
PE10   5952.050347 -23917.225833 -16394.781772   -473.235836
PE11   -897.449547 -28700.112674  -7212.220031   2437.339758
PE12  11608.298583 -15717.021507 -22245.030831   -141.330498
PE13    477.077874  28509.847824   7950.883417    430.430400
PE14  -5655.838716  14541.296805  18645.832437  -1735.222115
PE15 -11595.257828  15534.313261  22371.078078    723.742440
PE18  14808.879949 -14718.923959 -24092.982215  -1037.252644
PE19  28437.989666   7588.831054   3144.979439  -4673.555538
PE21  10339.828140  13124.758756  24440.743739   -754.693474
PE24   9955.246762 -22880.612197 -15912.443130   -808.097851
PE25 -10069.692856 -13336.683992 -24417.763955   -586.117028
PE26  12578.525582  24088.695997 -11750.305637  -1552.474437
PE27  -8928.012934  22761.577325  16700.095073   -379.858543
PE30 -23176.057664  18350.979356  -1634.404464   -794.547211
PE31  22768.971094 -18896.680305    821.946759   -502.557705
PE33  16757.844297   6533.194971 -23511.003668   -453.618136
PE34 -16760.918133  -6278.637393  23561.091449     -1.890793
PE36 -12155.062909 -24645.365874  10995.361705   -423.890041
PG01 -13290.218465   8174.528678  21122.822517    293.106677
PG02  15257.620891   4639.213451 -20591.889981   -647.701223
PG03 -23101.395353  11452.194699   6000.606977   -341.714786
PG04 -21164.989528   1894.547623 -15990.579194   -126.227981
PG05  20857.878572  -1547.717848 -16627.891182    -94.721035
PG06   6705.053454  24736.535687  -6767.043769    442.998475
PG07  -6581.890050  22263.491813 -12021.138896    311.427676
PG08 -25003.237860  -4408.643839   8352.174848    -82.473797
PG09 -11534.939053  11315.729475 -21160.935014   -302.443963
PG10   3741.641795 -18387.074651  18821.075866     -0.989724
PG11  12168.646392  16931.301626 -16473.368947    -13.260120
PG12  23879.215045  -8941.022687   6978.739867   -270.092819
PG13  23044.829135  13292.856237   1587.379503    377.462689
PG14  -6093.100182  18971.575989  17515.538333   -106.837254
PG15  25371.682961   1746.275272   7739.747784    -33.262791
PG16 -17367.494973  -5586.688715 -19734.216795   -522.420182
PG17   3597.167332  17348.593298  20204.103480    653.734100
PG18   6350.376453 -22844.098247 -11842.455576     65.824436
PG19  13567.015721  18510.817321  13336.760621    203.764215
PG20  12190.803222   9788.446668 -21453.652725    490.714075
PG21 -15909.886787  -2109.523236  21871.263681    160.031046
PG22 -15537.854497 -18291.227284  11987.139524    318.564311
PG23  13436.217090 -19856.925244  11283.430839    -38.387466
PG24  15149.426024  -3968.587360  21122.995303    152.857531
PG25  19280.368375 -17625.488544  -4187.392550    366.337654
PG26  -9802.956843 -12378.529064 -21443.701935    226.115162
PG27 -23130.692094 -13094.254315  -3437.597104    216.262974
PG28   2795.939855  15734.734140  21757.192174    340.319657
PG29  12671.263797  -9415.274801 -21420.468751   -547.107038
PG30    562.252100  26322.392787  -2132.839732   -536.497274
PG31  -7896.713903 -23602.630643  -8716.241579   -191.465404
PG32  -7641.319967 -17660.123516  18537.538872   -217.978338
PJ02 -29797.519269  29870.124713   5044.078889     -4.015910
PJ03 -25100.776931  23986.204549  28995.824668     -1.069035
PJ07 -25332.315311  33713.151916    -48.544427 999999.999999
PR01  18562.521156  -8080.621433  15521.791725     13.929740
PR02   -956.927339 -10854.978119  23102.586996    528.293374
PR03 -18557.829672  -7368.576138  15949.547082     62.758997
PR04 -25514.883930     61.797919    110.592985    155.691969
PR05 -18595.409006   7413.151246 -15818.303370     98.764511
PR06   2416.989579  10927.865120 -22934.796600    -67.105298
PR07  19074.441159   7083.154656 -15316.825632     40.159509
PR08  25490.923672   -289.114682    150.051435    -66.940324
PR09  -5204.032764  22033.517634  11696.752558     73.888309
PR10   5201.132467  12299.714581  21746.828256    -85.562926
PR11      0.000000      0.000000      0.000000 999999.999999
PR12  14454.186498 -20162.008956   5937.622451     20.594135
PR13   6421.089965 -22379.511704 -10430.882496    -26.245712
PR14  -6277.565464 -10906.611584 -22172.168737     24.381803
PR15 -14530.751661   6368.682594 -19945.678817     93.981550
PR17 -14778.555024 -19863.379844   6041.369756    556.710300
PR18 -14472.838354  -7554.246034  19625.874473     39.906056
PR19  -7607.960852   7523.130503  23152.769843   -201.773983
PR20   5528.090230  21724.363796  12147.101187    -77.435783
PR21  15007.720109  19210.428514  -7576.223948   -329.554464
PR23   4131.893431 -12497.082525 -21858.650033    -53.077407
PR24  -6355.916936 -21888.404762 -11415.038069    111.668216
PR25  14292.573249   7269.942347 -19811.856207     12.605053
EOF
